start=new Date('2022-07-16T00:00:00.000Z').valueOf();
sats=[{"TLE_LINE2":"2 48099  53.0560  34.9740 0001273  76.2215 283.8916 15.06404380 71123","RCS_SIZE":"LARGE","MEAN_ANOMALY":"283.8916","TLE_LINE1":"1 48099U 21027H   22196.85040033  .00001459  00000-0  11678-3 0  9990","EPHEMERIS_TYPE":"0","MEAN_MOTION":"15.06404380","REF_FRAME":"TEME","CLASSIFICATION_TYPE":"U","NORAD_CAT_ID":"48099","BSTAR":"0.00011678000000","CENTER_NAME":"EARTH","ECCENTRICITY":"0.00012730","APOAPSIS":"548.082","COUNTRY_CODE":"US","MEAN_ELEMENT_THEORY":"SGP4","RA_OF_ASC_NODE":"34.9740","GP_ID":"208177184","OBJECT_NAME":"STARLINK-2428","INCLINATION":"53.0560","FILE":"3514671","DECAY_DATE":null,"PERIAPSIS":"546.319","OBJECT_TYPE":"PAYLOAD","SEMIMAJOR_AXIS":"6925.335","EPOCH":"2022-07-15T20:24:34.588512","REV_AT_EPOCH":"7112","LAUNCH_DATE":"2021-04-07","MEAN_MOTION_DDOT":"0.0000000000000","TIME_SYSTEM":"UTC","MEAN_MOTION_DOT":"0.00001459","OBJECT_ID":"2021-027H","ARG_OF_PERICENTER":"76.2215","ELEMENT_SET_NO":"999","SITE":"AFETR","PERIOD":"95.592"},{"INCLINATION":"53.0565","FILE":"3514839","PERIAPSIS":"546.232","OBJECT_TYPE":"PAYLOAD","DECAY_DATE":null,"EPOCH":"2022-07-15T21:04:24.115296","SEMIMAJOR_AXIS":"6925.361","LAUNCH_DATE":"2021-04-07","REV_AT_EPOCH":"7181","OBJECT_ID":"2021-027J","MEAN_MOTION_DOT":"0.00002031","TIME_SYSTEM":"UTC","MEAN_MOTION_DDOT":"0.0000000000000","PERIOD":"95.592","SITE":"AFETR","ELEMENT_SET_NO":"999","ARG_OF_PERICENTER":"82.2842","RCS_SIZE":"LARGE","TLE_LINE2":"2 48100  53.0565  14.8549 0001435  82.2842 277.8310 15.06396010 71815","EPHEMERIS_TYPE":"0","TLE_LINE1":"1 48100U 21027J   22196.87805689  .00002031  00000-0  15524-3 0  9992","MEAN_ANOMALY":"277.8310","CLASSIFICATION_TYPE":"U","REF_FRAME":"TEME","MEAN_MOTION":"15.06396010","BSTAR":"0.00015524000000","NORAD_CAT_ID":"48100","COUNTRY_CODE":"US","MEAN_ELEMENT_THEORY":"SGP4","APOAPSIS":"548.220","CENTER_NAME":"EARTH","ECCENTRICITY":"0.00014350","GP_ID":"208202716","OBJECT_NAME":"STARLINK-2430","RA_OF_ASC_NODE":"14.8549"},{"EPOCH":"2022-07-15T19:04:55.750080","SEMIMAJOR_AXIS":"6925.279","FILE":"3514839","INCLINATION":"53.0552","OBJECT_TYPE":"PAYLOAD","PERIAPSIS":"546.119","DECAY_DATE":null,"PERIOD":"95.591","SITE":"AFETR","ARG_OF_PERICENTER":"79.2915","ELEMENT_SET_NO":"999","LAUNCH_DATE":"2021-04-07","REV_AT_EPOCH":"7166","OBJECT_ID":"2021-027K","MEAN_MOTION_DOT":"-0.00004602","TIME_SYSTEM":"UTC","MEAN_MOTION_DDOT":"0.0000000000000","TLE_LINE1":"1 48101U 21027K   22196.79508970 -.00004602  00000-0 -29007-3 0  9996","EPHEMERIS_TYPE":"0","MEAN_ANOMALY":"280.8241","CLASSIFICATION_TYPE":"U","REF_FRAME":"TEME","MEAN_MOTION":"15.06422678","RCS_SIZE":"LARGE","TLE_LINE2":"2 48101  53.0552  25.2290 0001480  79.2915 280.8241 15.06422678 71668","COUNTRY_CODE":"US","MEAN_ELEMENT_THEORY":"SGP4","APOAPSIS":"548.169","ECCENTRICITY":"0.00014800","CENTER_NAME":"EARTH","OBJECT_NAME":"STARLINK-2436","GP_ID":"208201464","RA_OF_ASC_NODE":"25.2290","BSTAR":"-0.00029007000000","NORAD_CAT_ID":"48101"},{"NORAD_CAT_ID":"48102","BSTAR":"0.00037676000000","ECCENTRICITY":"0.00014640","CENTER_NAME":"EARTH","COUNTRY_CODE":"US","MEAN_ELEMENT_THEORY":"SGP4","APOAPSIS":"548.207","RA_OF_ASC_NODE":"15.3381","GP_ID":"208201714","OBJECT_NAME":"STARLINK-2437","TLE_LINE2":"2 48102  53.0552  15.3381 0001464  91.0257 269.0900 15.06406602 71797","RCS_SIZE":"LARGE","MEAN_ANOMALY":"269.0900","EPHEMERIS_TYPE":"0","TLE_LINE1":"1 48102U 21027L   22196.77115827  .00005336  00000-0  37676-3 0  9994","REF_FRAME":"TEME","MEAN_MOTION":"15.06406602","CLASSIFICATION_TYPE":"U","LAUNCH_DATE":"2021-04-07","REV_AT_EPOCH":"7179","TIME_SYSTEM":"UTC","MEAN_MOTION_DDOT":"0.0000000000000","OBJECT_ID":"2021-027L","MEAN_MOTION_DOT":"0.00005336","SITE":"AFETR","ARG_OF_PERICENTER":"91.0257","ELEMENT_SET_NO":"999","PERIOD":"95.592","FILE":"3514839","INCLINATION":"53.0552","DECAY_DATE":null,"OBJECT_TYPE":"PAYLOAD","PERIAPSIS":"546.179","EPOCH":"2022-07-15T18:30:28.074528","SEMIMAJOR_AXIS":"6925.328"},{"PERIOD":"95.592","ARG_OF_PERICENTER":"75.6007","ELEMENT_SET_NO":"999","SITE":"AFETR","REV_AT_EPOCH":"7179","LAUNCH_DATE":"2021-04-07","MEAN_MOTION_DOT":"0.00000648","OBJECT_ID":"2021-027M","MEAN_MOTION_DDOT":"0.0000000000000","TIME_SYSTEM":"UTC","SEMIMAJOR_AXIS":"6925.365","EPOCH":"2022-07-15T18:45:02.162592","INCLINATION":"53.0561","FILE":"3514839","PERIAPSIS":"546.374","OBJECT_TYPE":"PAYLOAD","DECAY_DATE":null,"APOAPSIS":"548.086","MEAN_ELEMENT_THEORY":"SGP4","COUNTRY_CODE":"US","CENTER_NAME":"EARTH","ECCENTRICITY":"0.00012360","OBJECT_NAME":"STARLINK-2438","GP_ID":"208202966","RA_OF_ASC_NODE":"15.2993","BSTAR":"0.00006236500000","NORAD_CAT_ID":"48103","EPHEMERIS_TYPE":"0","TLE_LINE1":"1 48103U 21027M   22196.78127503  .00000648  00000-0  62365-4 0  9995","MEAN_ANOMALY":"284.5119","CLASSIFICATION_TYPE":"U","MEAN_MOTION":"15.06394484","REF_FRAME":"TEME","RCS_SIZE":"LARGE","TLE_LINE2":"2 48103  53.0561  15.2993 0001236  75.6007 284.5119 15.06394484 71792"},{"RCS_SIZE":"LARGE","TLE_LINE2":"2 48104  53.0537  20.2477 0001349  90.6825 269.4318 15.06390243 71331","EPHEMERIS_TYPE":"0","TLE_LINE1":"1 48104U 21027N   22196.79097503  .00001847  00000-0  14289-3 0  9996","MEAN_ANOMALY":"269.4318","CLASSIFICATION_TYPE":"U","REF_FRAME":"TEME","MEAN_MOTION":"15.06390243","BSTAR":"0.00014289000000","NORAD_CAT_ID":"48104","MEAN_ELEMENT_THEORY":"SGP4","COUNTRY_CODE":"US","APOAPSIS":"548.178","CENTER_NAME":"EARTH","ECCENTRICITY":"0.00013490","OBJECT_NAME":"STARLINK-2439","GP_ID":"208176867","RA_OF_ASC_NODE":"20.2477","FILE":"3514686","INCLINATION":"53.0537","PERIAPSIS":"546.309","OBJECT_TYPE":"PAYLOAD","DECAY_DATE":null,"EPOCH":"2022-07-15T18:59:00.242592","SEMIMAJOR_AXIS":"6925.378","LAUNCH_DATE":"2021-04-07","REV_AT_EPOCH":"7133","OBJECT_ID":"2021-027N","MEAN_MOTION_DOT":"0.00001847","TIME_SYSTEM":"UTC","MEAN_MOTION_DDOT":"0.0000000000000","PERIOD":"95.593","SITE":"AFETR","ELEMENT_SET_NO":"999","ARG_OF_PERICENTER":"90.6825"},{"INCLINATION":"53.0537","FILE":"3514839","OBJECT_TYPE":"PAYLOAD","PERIAPSIS":"546.075","DECAY_DATE":null,"SEMIMAJOR_AXIS":"6925.347","EPOCH":"2022-07-15T19:56:43.214208","REV_AT_EPOCH":"7250","LAUNCH_DATE":"2021-04-07","MEAN_MOTION_DOT":"0.00001733","OBJECT_ID":"2021-027P","MEAN_MOTION_DDOT":"0.0000000000000","TIME_SYSTEM":"UTC","PERIOD":"95.592","ARG_OF_PERICENTER":"79.6222","ELEMENT_SET_NO":"999","SITE":"AFETR","RCS_SIZE":"LARGE","TLE_LINE2":"2 48105  53.0537 325.0644 0001642  79.6222 280.4952 15.06400552 72500","EPHEMERIS_TYPE":"0","TLE_LINE1":"1 48105U 21027P   22196.83105572  .00001733  00000-0  13521-3 0  9990","MEAN_ANOMALY":"280.4952","CLASSIFICATION_TYPE":"U","MEAN_MOTION":"15.06400552","REF_FRAME":"TEME","BSTAR":"0.00013521000000","NORAD_CAT_ID":"48105","APOAPSIS":"548.349","COUNTRY_CODE":"US","MEAN_ELEMENT_THEORY":"SGP4","ECCENTRICITY":"0.00016420","CENTER_NAME":"EARTH","OBJECT_NAME":"STARLINK-2440","GP_ID":"208201965","RA_OF_ASC_NODE":"325.0644"},{"SITE":"AFETR","ARG_OF_PERICENTER":"86.4309","ELEMENT_SET_NO":"999","PERIOD":"95.592","LAUNCH_DATE":"2021-04-07","REV_AT_EPOCH":"7181","TIME_SYSTEM":"UTC","MEAN_MOTION_DDOT":"0.0000000000000","OBJECT_ID":"2021-027Q","MEAN_MOTION_DOT":"0.00007917","EPOCH":"2022-07-15T21:09:43.000416","SEMIMAJOR_AXIS":"6925.338","INCLINATION":"53.0543","FILE":"3514839","DECAY_DATE":null,"OBJECT_TYPE":"PAYLOAD","PERIAPSIS":"546.310","ECCENTRICITY":"0.00012900","CENTER_NAME":"EARTH","MEAN_ELEMENT_THEORY":"SGP4","COUNTRY_CODE":"US","APOAPSIS":"548.096","RA_OF_ASC_NODE":"14.8474","GP_ID":"208202215","OBJECT_NAME":"STARLINK-2442","NORAD_CAT_ID":"48106","BSTAR":"0.00054971000000","MEAN_ANOMALY":"273.6828","EPHEMERIS_TYPE":"0","TLE_LINE1":"1 48106U 21027Q   22196.88174769  .00007917  00000-0  54971-3 0  9994","REF_FRAME":"TEME","MEAN_MOTION":"15.06403470","CLASSIFICATION_TYPE":"U","TLE_LINE2":"2 48106  53.0543  14.8474 0001290  86.4309 273.6828 15.06403470 71814","RCS_SIZE":"LARGE"},{"RA_OF_ASC_NODE":"15.3637","OBJECT_NAME":"STARLINK-2443","GP_ID":"208202466","CENTER_NAME":"EARTH","ECCENTRICITY":"0.00012190","COUNTRY_CODE":"US","MEAN_ELEMENT_THEORY":"SGP4","APOAPSIS":"548.070","NORAD_CAT_ID":"48107","BSTAR":"0.00010245000000","REF_FRAME":"TEME","MEAN_MOTION":"15.06396053","CLASSIFICATION_TYPE":"U","MEAN_ANOMALY":"269.1740","EPHEMERIS_TYPE":"0","TLE_LINE1":"1 48107U 21027R   22196.76378867  .00001245  00000-0  10245-3 0  9991","TLE_LINE2":"2 48107  53.0571  15.3637 0001219  90.9388 269.1740 15.06396053 71799","RCS_SIZE":"LARGE","SITE":"AFETR","ARG_OF_PERICENTER":"90.9388","ELEMENT_SET_NO":"999","PERIOD":"95.592","TIME_SYSTEM":"UTC","MEAN_MOTION_DDOT":"0.0000000000000","OBJECT_ID":"2021-027R","MEAN_MOTION_DOT":"0.00001245","LAUNCH_DATE":"2021-04-07","REV_AT_EPOCH":"7179","EPOCH":"2022-07-15T18:19:51.341088","SEMIMAJOR_AXIS":"6925.361","DECAY_DATE":null,"OBJECT_TYPE":"PAYLOAD","PERIAPSIS":"546.381","FILE":"3514839","INCLINATION":"53.0571"},{"MEAN_MOTION":"15.06401617","REF_FRAME":"TEME","CLASSIFICATION_TYPE":"U","MEAN_ANOMALY":"270.7396","EPHEMERIS_TYPE":"0","TLE_LINE1":"1 48108U 21027S   22196.80342155  .00005106  00000-0  36142-3 0  9992","TLE_LINE2":"2 48108  53.0559  25.1884 0001524  89.3767 270.7396 15.06401617 71654","RCS_SIZE":"LARGE","RA_OF_ASC_NODE":"25.1884","OBJECT_NAME":"STARLINK-2444","GP_ID":"208202717","CENTER_NAME":"EARTH","ECCENTRICITY":"0.00015240","APOAPSIS":"548.264","MEAN_ELEMENT_THEORY":"SGP4","COUNTRY_CODE":"US","NORAD_CAT_ID":"48108","BSTAR":"0.00036142000000","SEMIMAJOR_AXIS":"6925.344","EPOCH":"2022-07-15T19:16:55.621920","DECAY_DATE":null,"OBJECT_TYPE":"PAYLOAD","PERIAPSIS":"546.153","FILE":"3514839","INCLINATION":"53.0559","ELEMENT_SET_NO":"999","ARG_OF_PERICENTER":"89.3767","SITE":"AFETR","PERIOD":"95.592","MEAN_MOTION_DDOT":"0.0000000000000","TIME_SYSTEM":"UTC","MEAN_MOTION_DOT":"0.00005106","OBJECT_ID":"2021-027S","REV_AT_EPOCH":"7165","LAUNCH_DATE":"2021-04-07"}];
